ION SCV-008             
1 55051U 23001AU  26068.82429008  .00008336  00000+0  31423-3 0  9992
2 55051  97.5676 163.6060 0015192   8.5420 351.6074 15.27226640176169
STARLINK-31954          
1 60102U 24117M   26068.29720767 -.00004229  00000+0 -13092-3 0  9992
2 60102  53.1621  39.1420 0000831  93.5893 266.5203 15.30157979 96823
